COSMOS 1953             
1 19210U 88050A   26061.75150916  .00010680  00000+0  38458-3 0  9998
2 19210  82.5116 165.2225 0012171 145.0303 215.1738 15.28371852 36726
SL-8 R/B                
1 19257U 88053B   26062.19015656  .00000294  00000+0  10365-3 0  9999
2 19257  74.0469 124.4470 0021273 304.7084 113.6977 14.38911054975662
COSMOS 1975             
1 19573U 88093A   26062.17615390  .00009231  00000+0  33667-3 0  9993
2 19573  82.5199 124.2233 0011522 185.9352 174.1753 15.27949931 18414
SL-14 R/B               
1 19574U 88093B   26062.06270949  .00000696  00000+0  77185-4 0  9999
2 19574  82.5292  48.2654 0022140  62.2017   4.1320 14.85646618    34
SL-16 R/B               
1 19650U 88102B   26061.70015643 -.00000094  00000+0 -23193-4 0  9997
2 19650  71.0000 166.2026 0013519  12.2660 347.8790 14.16149362925900
INTERCOSMOS 24          
1 20261U 89080A   26062.13052627  .00000775  00000+0  23028-3 0  9994
2 20261  82.6032 108.6756 1186836 308.0597  41.9049 12.59545792665971
SL-14 R/B               
1 20262U 89080C   26061.83414970  .00000721  00000+0  21457-3 0  9999
2 20262  82.5971 177.5858 1230306 200.4157 154.3370 12.50483069659293
DELTA 1 R/B             
1 20323U 89089B   26062.13706633  .00000428  00000+0  11415-3 0  9997
2 20323  97.0709 270.6178 0070063 142.3713 218.2417 14.50656696894781
ARIANE 40 R/B           
1 20443U 90005H   26062.14237346  .00000314  00000+0  11330-3 0  9991
2 20443  98.3098 122.9986 0009457 218.9754 141.0754 14.39865183891862
DELTA 2 R/B(1)          
1 20453U 90008B   26061.44271042  .00074557  00000+0  90521-3 0  9997
2 20453  35.6028 222.3764 0086982 191.5547 168.3190 15.54850817925009
COSMOS 2058             
1 20465U 90010A   26062.15950528  .00004852  00000+0  28665-3 0  9996
2 20465  82.4665  53.8612 0009860   4.9455 355.1871 15.11248889941253
SL-14 R/B               
1 20466U 90010B   26062.00967480  .00000471  00000+0  54157-4 0  9995
2 20466  82.4992 273.6651 0018962 325.6443  34.3545 14.83561935927497
SL-14 R/B               
1 20511U 90018B   26061.95357581  .00000627  00000+0  75662-4 0  9999
2 20511  82.5191 229.3863 0017571 112.4856 247.8221 14.82135873921581
HST                     
1 20580U 90037B   26062.15651664  .00008766  00000+0  29119-3 0  9995
2 20580  28.4701  84.5634 0001675  60.3567 299.7195 15.29358901772310
SL-16 R/B               
1 20625U 90046B   26062.12285701 -.00000172  00000+0 -64098-4 0  9998
2 20625  71.0003 311.7062 0016124 308.4467  51.5208 14.15014698847463
COSMOS 2084             
1 20663U 90055A   26062.14682862  .00003428  00000+0  24966-3 0  9995
2 20663  62.7926 357.8915 0018121 188.5743 171.5050 15.05601210935331
SL-6 R/B(2)             
1 20666U 90055D   26061.98752603  .00002348  00000+0  18473-3 0  9996
2 20666  62.7820 276.6432 0023719 345.3800  14.6610 15.03555926937189
