[{"OBJECT_NAME":"COSMOS 1953","OBJECT_ID":"1988-050A","EPOCH":"2026-03-02T18:02:10.391424","MEAN_MOTION":15.28371852,"ECCENTRICITY":0.00121717,"INCLINATION":82.5116,"RA_OF_ASC_NODE":165.2225,"ARG_OF_PERICENTER":145.0303,"MEAN_ANOMALY":215.1738,"EPHEMERIS_TYPE":0,"CLASSIFICATION_TYPE":"U","NORAD_CAT_ID":19210,"ELEMENT_SET_NO":999,"REV_AT_EPOCH":3672,"BSTAR":0.00038458032,"MEAN_MOTION_DOT":0.0001068,"MEAN_MOTION_DDOT":0},{"OBJECT_NAME":"SL-8 R/B","OBJECT_ID":"1988-053B","EPOCH":"2026-03-03T04:33:49.526784","MEAN_MOTION":14.38911054,"ECCENTRICITY":0.0021273,"INCLINATION":74.0469,"RA_OF_ASC_NODE":124.447,"ARG_OF_PERICENTER":304.7084,"MEAN_ANOMALY":113.6977,"EPHEMERIS_TYPE":0,"CLASSIFICATION_TYPE":"U","NORAD_CAT_ID":19257,"ELEMENT_SET_NO":999,"REV_AT_EPOCH":97566,"BSTAR":0.00010365,"MEAN_MOTION_DOT":2.94e-6,"MEAN_MOTION_DDOT":0},{"OBJECT_NAME":"COSMOS 1975","OBJECT_ID":"1988-093A","EPOCH":"2026-03-03T04:13:39.696960","MEAN_MOTION":15.27949931,"ECCENTRICITY":0.0011522,"INCLINATION":82.5199,"RA_OF_ASC_NODE":124.2233,"ARG_OF_PERICENTER":185.9352,"MEAN_ANOMALY":174.1753,"EPHEMERIS_TYPE":0,"CLASSIFICATION_TYPE":"U","NORAD_CAT_ID":19573,"ELEMENT_SET_NO":999,"REV_AT_EPOCH":1841,"BSTAR":0.00033667,"MEAN_MOTION_DOT":9.231e-5,"MEAN_MOTION_DDOT":0},{"OBJECT_NAME":"SL-14 R/B","OBJECT_ID":"1988-093B","EPOCH":"2026-03-03T01:30:18.099936","MEAN_MOTION":14.85646618,"ECCENTRICITY":0.002214,"INCLINATION":82.5292,"RA_OF_ASC_NODE":48.2654,"ARG_OF_PERICENTER":62.2017,"MEAN_ANOMALY":4.132,"EPHEMERIS_TYPE":0,"CLASSIFICATION_TYPE":"U","NORAD_CAT_ID":19574,"ELEMENT_SET_NO":999,"REV_AT_EPOCH":3,"BSTAR":7.7185e-5,"MEAN_MOTION_DOT":6.96e-6,"MEAN_MOTION_DDOT":0},{"OBJECT_NAME":"SL-16 R/B","OBJECT_ID":"1988-102B","EPOCH":"2026-03-02T16:48:13.515552","MEAN_MOTION":14.16149362,"ECCENTRICITY":0.00135195,"INCLINATION":71,"RA_OF_ASC_NODE":166.2026,"ARG_OF_PERICENTER":12.266,"MEAN_ANOMALY":347.879,"EPHEMERIS_TYPE":0,"CLASSIFICATION_TYPE":"U","NORAD_CAT_ID":19650,"ELEMENT_SET_NO":999,"REV_AT_EPOCH":92590,"BSTAR":-2.3192549e-5,"MEAN_MOTION_DOT":-9.4e-7,"MEAN_MOTION_DDOT":0},{"OBJECT_NAME":"INTERCOSMOS 24","OBJECT_ID":"1989-080A","EPOCH":"2026-03-03T03:07:57.469728","MEAN_MOTION":12.59545792,"ECCENTRICITY":0.1186836,"INCLINATION":82.6032,"RA_OF_ASC_NODE":108.6756,"ARG_OF_PERICENTER":308.0597,"MEAN_ANOMALY":41.9049,"EPHEMERIS_TYPE":0,"CLASSIFICATION_TYPE":"U","NORAD_CAT_ID":20261,"ELEMENT_SET_NO":999,"REV_AT_EPOCH":66597,"BSTAR":0.00023028,"MEAN_MOTION_DOT":7.75e-6,"MEAN_MOTION_DDOT":0},{"OBJECT_NAME":"SL-14 R/B","OBJECT_ID":"1989-080C","EPOCH":"2026-03-02T20:01:10.534080","MEAN_MOTION":12.50483069,"ECCENTRICITY":0.1230306,"INCLINATION":82.5971,"RA_OF_ASC_NODE":177.5858,"ARG_OF_PERICENTER":200.4157,"MEAN_ANOMALY":154.337,"EPHEMERIS_TYPE":0,"CLASSIFICATION_TYPE":"U","NORAD_CAT_ID":20262,"ELEMENT_SET_NO":999,"REV_AT_EPOCH":65929,"BSTAR":0.00021457,"MEAN_MOTION_DOT":7.21e-6,"MEAN_MOTION_DDOT":0},{"OBJECT_NAME":"DELTA 1 R/B","OBJECT_ID":"1989-089B","EPOCH":"2026-03-03T03:17:22.530912","MEAN_MOTION":14.50656696,"ECCENTRICITY":0.0070063,"INCLINATION":97.0709,"RA_OF_ASC_NODE":270.6178,"ARG_OF_PERICENTER":142.3713,"MEAN_ANOMALY":218.2417,"EPHEMERIS_TYPE":0,"CLASSIFICATION_TYPE":"U","NORAD_CAT_ID":20323,"ELEMENT_SET_NO":999,"REV_AT_EPOCH":89478,"BSTAR":0.00011415,"MEAN_MOTION_DOT":4.28e-6,"MEAN_MOTION_DDOT":0},{"OBJECT_NAME":"ARIANE 40 R/B","OBJECT_ID":"1990-005H","EPOCH":"2026-03-03T03:25:01.066944","MEAN_MOTION":14.39865183,"ECCENTRICITY":0.0009457,"INCLINATION":98.3098,"RA_OF_ASC_NODE":122.9986,"ARG_OF_PERICENTER":218.9754,"MEAN_ANOMALY":141.0754,"EPHEMERIS_TYPE":0,"CLASSIFICATION_TYPE":"U","NORAD_CAT_ID":20443,"ELEMENT_SET_NO":999,"REV_AT_EPOCH":89186,"BSTAR":0.0001133,"MEAN_MOTION_DOT":3.14e-6,"MEAN_MOTION_DDOT":0},{"OBJECT_NAME":"DELTA 2 R/B(1)","OBJECT_ID":"1990-008B","EPOCH":"2026-03-02T10:37:30.180288","MEAN_MOTION":15.54850817,"ECCENTRICITY":0.00869822,"INCLINATION":35.6028,"RA_OF_ASC_NODE":222.3764,"ARG_OF_PERICENTER":191.5547,"MEAN_ANOMALY":168.319,"EPHEMERIS_TYPE":0,"CLASSIFICATION_TYPE":"U","NORAD_CAT_ID":20453,"ELEMENT_SET_NO":999,"REV_AT_EPOCH":92500,"BSTAR":0.0009052081,"MEAN_MOTION_DOT":0.00074557,"MEAN_MOTION_DDOT":0},{"OBJECT_NAME":"COSMOS 2058","OBJECT_ID":"1990-010A","EPOCH":"2026-03-03T03:49:41.256192","MEAN_MOTION":15.11248889,"ECCENTRICITY":0.000986,"INCLINATION":82.4665,"RA_OF_ASC_NODE":53.8612,"ARG_OF_PERICENTER":4.9455,"MEAN_ANOMALY":355.1871,"EPHEMERIS_TYPE":0,"CLASSIFICATION_TYPE":"U","NORAD_CAT_ID":20465,"ELEMENT_SET_NO":999,"REV_AT_EPOCH":94125,"BSTAR":0.00028665,"MEAN_MOTION_DOT":4.852e-5,"MEAN_MOTION_DDOT":0},{"OBJECT_NAME":"SL-14 R/B","OBJECT_ID":"1990-010B","EPOCH":"2026-03-03T00:13:55.902720","MEAN_MOTION":14.83561935,"ECCENTRICITY":0.0018962,"INCLINATION":82.4992,"RA_OF_ASC_NODE":273.6651,"ARG_OF_PERICENTER":325.6443,"MEAN_ANOMALY":34.3545,"EPHEMERIS_TYPE":0,"CLASSIFICATION_TYPE":"U","NORAD_CAT_ID":20466,"ELEMENT_SET_NO":999,"REV_AT_EPOCH":92749,"BSTAR":5.4157e-5,"MEAN_MOTION_DOT":4.71e-6,"MEAN_MOTION_DDOT":0},{"OBJECT_NAME":"SL-14 R/B","OBJECT_ID":"1990-018B","EPOCH":"2026-03-02T22:53:08.949984","MEAN_MOTION":14.82135873,"ECCENTRICITY":0.0017571,"INCLINATION":82.5191,"RA_OF_ASC_NODE":229.3863,"ARG_OF_PERICENTER":112.4856,"MEAN_ANOMALY":247.8221,"EPHEMERIS_TYPE":0,"CLASSIFICATION_TYPE":"U","NORAD_CAT_ID":20511,"ELEMENT_SET_NO":999,"REV_AT_EPOCH":92158,"BSTAR":7.5662e-5,"MEAN_MOTION_DOT":6.27e-6,"MEAN_MOTION_DDOT":0},{"OBJECT_NAME":"HST","OBJECT_ID":"1990-037B","EPOCH":"2026-03-03T03:45:23.037696","MEAN_MOTION":15.29358901,"ECCENTRICITY":0.0001675,"INCLINATION":28.4701,"RA_OF_ASC_NODE":84.5634,"ARG_OF_PERICENTER":60.3567,"MEAN_ANOMALY":299.7195,"EPHEMERIS_TYPE":0,"CLASSIFICATION_TYPE":"U","NORAD_CAT_ID":20580,"ELEMENT_SET_NO":999,"REV_AT_EPOCH":77231,"BSTAR":0.00029119,"MEAN_MOTION_DOT":8.766e-5,"MEAN_MOTION_DDOT":0},{"OBJECT_NAME":"SL-16 R/B","OBJECT_ID":"1990-046B","EPOCH":"2026-03-03T02:56:54.845664","MEAN_MOTION":14.15014698,"ECCENTRICITY":0.0016124,"INCLINATION":71.0003,"RA_OF_ASC_NODE":311.7062,"ARG_OF_PERICENTER":308.4467,"MEAN_ANOMALY":51.5208,"EPHEMERIS_TYPE":0,"CLASSIFICATION_TYPE":"U","NORAD_CAT_ID":20625,"ELEMENT_SET_NO":999,"REV_AT_EPOCH":84746,"BSTAR":-6.4098e-5,"MEAN_MOTION_DOT":-1.72e-6,"MEAN_MOTION_DDOT":0},{"OBJECT_NAME":"COSMOS 2084","OBJECT_ID":"1990-055A","EPOCH":"2026-03-03T03:31:25.992768","MEAN_MOTION":15.0560121,"ECCENTRICITY":0.0018121,"INCLINATION":62.7926,"RA_OF_ASC_NODE":357.8915,"ARG_OF_PERICENTER":188.5743,"MEAN_ANOMALY":171.505,"EPHEMERIS_TYPE":0,"CLASSIFICATION_TYPE":"U","NORAD_CAT_ID":20663,"ELEMENT_SET_NO":999,"REV_AT_EPOCH":93533,"BSTAR":0.00024966,"MEAN_MOTION_DOT":3.428e-5,"MEAN_MOTION_DDOT":0},{"OBJECT_NAME":"SL-6 R/B(2)","OBJECT_ID":"1990-055D","EPOCH":"2026-03-02T23:42:02.248992","MEAN_MOTION":15.03555926,"ECCENTRICITY":0.0023719,"INCLINATION":62.782,"RA_OF_ASC_NODE":276.6432,"ARG_OF_PERICENTER":345.38,"MEAN_ANOMALY":14.661,"EPHEMERIS_TYPE":0,"CLASSIFICATION_TYPE":"U","NORAD_CAT_ID":20666,"ELEMENT_SET_NO":999,"REV_AT_EPOCH":93718,"BSTAR":0.00018473,"MEAN_MOTION_DOT":2.348e-5,"MEAN_MOTION_DDOT":0}]
